[{"OBJECT_NAME":"STARLINK-5815","OBJECT_ID":"2023-028BA","EPOCH":"2026-03-09T17:33:37.566720","MEAN_MOTION":14.98334592,"ECCENTRICITY":0.00032199,"INCLINATION":70.0005,"RA_OF_ASC_NODE":204.3003,"ARG_OF_PERICENTER":269.9017,"MEAN_ANOMALY":90.1773,"EPHEMERIS_TYPE":0,"CLASSIFICATION_TYPE":"U","NORAD_CAT_ID":55789,"ELEMENT_SET_NO":999,"REV_AT_EPOCH":16703,"BSTAR":1.5170717e-5,"MEAN_MOTION_DOT":8.8e-7,"MEAN_MOTION_DDOT":0},{"OBJECT_NAME":"CENTAURI-8","OBJECT_ID":"2025-009DK","EPOCH":"2026-03-09T17:25:58.526112","MEAN_MOTION":14.9722833,"ECCENTRICITY":0.00030201,"INCLINATION":97.7096,"RA_OF_ASC_NODE":150.1876,"ARG_OF_PERICENTER":109.5881,"MEAN_ANOMALY":250.5667,"EPHEMERIS_TYPE":0,"CLASSIFICATION_TYPE":"U","NORAD_CAT_ID":62714,"ELEMENT_SET_NO":999,"REV_AT_EPOCH":6259,"BSTAR":0.00038891127,"MEAN_MOTION_DOT":4.445e-5,"MEAN_MOTION_DDOT":0}]
